OSCAR III [-]           
1 01293U 65016F   08269.54292072  .00000013  00000-0  41472-4 0  3472
2 01293  70.0721  23.3346 0017798 169.9009 190.2462 14.04660336222644
AO-5 [-]                
1 04321U 70008B   08268.95465833 -.00000031  00000-0  10000-3 0   790
2 04321 102.1316 269.0536 0027790 121.5816 238.7973 12.52154417767568
AO-6 [-]                
1 06236U 72082B   08268.93359511 -.00000027  00000-0  10000-3 0   575
2 06236 101.4116 286.9026 0004151  51.1077 309.0366 12.53075140644186
AO-7 [P]                
1 07530U 74089B   08268.65267133 -.00000027  00000-0  10000-3 0  2863
2 07530 101.4586 296.7967 0012142  68.2738 291.9627 12.53574316549441
AO-8 [-]                
1 10703U 78026B   08269.19134041 -.00000206  00000-0 -11315-3 0  2764
2 10703  98.8734 317.5952 0006757 178.6238 181.4947 13.98816655558974
AO-10 [-]               
1 14129U 83058B   08268.73450592 -.00000271  00000-0  10000-3 0  5676
2 14129  26.0343 194.0113 5963168 159.7159 240.8111  2.05868842162189
UO-11 [P]               
1 14781U 84021B   08268.93124788 -.00000165  00000-0 -14754-4 0  7775
2 14781  98.1468 304.4131 0010025 109.4877 250.7432 14.79663589318608
FO-12 [-]               
1 16909U 86061B   08269.21812609 -.00000083  00000-0  10000-3 0  4463
2 16909  50.0158 256.4688 0010877 250.9766 108.9890 12.44452133  5989
UO-14 [-]               
1 20437U 90005B   08268.94525658 -.00000005  00000-0  13641-4 0  7418
2 20437  98.2996 232.0554 0009719 236.5580 123.4671 14.31524467975100
UO-15 [-]               
1 20438U 90005C   08269.02762529 -.00000017  00000-0  94228-5 0  2317
2 20438  98.3587 223.8735 0009003 264.1527  95.8630 14.30430626974569
AO-16 [P]               
1 20439U 90005D   08268.93293246 -.00000002  00000-0  14632-4 0  4251
2 20439  98.2430 243.9543 0010007 238.7784 121.2423 14.31803277975195
DO-17 [-]               
1 20440U 90005E   08269.75827353  .00000017  00000-0  21469-4 0  1298
2 20440  98.2218 250.0621 0010125 231.5865 128.4425 14.32106125975447
WO-18 [-]               
1 20441U 90005F   08269.85790032 -.00000006  00000-0  13020-4 0  6381
2 20441  98.2271 248.7070 0010639 235.3801 124.6372 14.31871991975393
LO-19 [P]               
1 20442U 90005G   08269.52268119  .00000072  00000-0  42111-4 0  3496
2 20442  98.2119 252.7396 0011161 232.6109 127.4043 14.32041479975435
FO-20 [-]               
1 20480U 90013C   08268.96855667 -.00000020  00000-0  21257-4 0  9458
2 20480  99.0397 233.1628 0540770  50.8725 313.9171 12.83359012872880
AO-21 [-]               
1 21087U 91006A   08269.88465976  .00000032  00000-0  17753-4 0   771
2 21087  82.9389 241.7747 0033975 303.7277  56.0645 13.75036581886093
RS-12 & RS-13 [-]       
1 21089U 91007A   08269.86884012 -.00000002  00000-0 -17805-4 0  9572
2 21089  82.9176 102.8207 0029309 348.9581  11.0936 13.74481921884882
UO-22 [-]               
1 21575U 91050B   08268.89872500  .00000054  00000-0  31030-4 0  3824
2 21575  98.4062 216.0614 0008296  91.7526 268.4609 14.39649907902532
KO-23 [-]               
1 22077U 92052B   08269.50933159 -.00000037  00000-0  10000-3 0  5436
2 22077  66.0846 160.9835 0004116 343.2572  16.8319 12.86445656757475
AO-24 [-]               
1 22654U 93031B   08269.36709286 -.00000131  00000-0  10000-3 0  1836
2 22654   5.2812 342.3353 2891519 145.4641 237.1703  1.42205745 75355
AO-27 [+]               
1 22825U 93061C   08268.96097527  .00000089  00000-0  51437-4 0   708
2 22825  98.3963 225.2966 0007947 332.7847  27.2925 14.29247745782023
IO-26 [P]               
1 22826U 93061D   08269.41761409  .00000014  00000-0  21909-4 0  7815
2 22826  98.3892 226.6016 0008654 327.3879  32.6771 14.29497116782182
KO-25 [-]               
1 22828U 93061F   08269.43764404  .00000013  00000-0  21568-4 0    56
2 22828  98.3836 226.5870 0009207 299.4976  60.5283 14.29799913750454
PO-28 [+]               
1 22829U 93061G   08268.93530062 -.00000070  00000-0 -10762-4 0   466
2 22829  98.3780 227.2230 0008952 296.9194  63.1073 14.30197118782385
RS-15 [P]               
1 23439U 94085A   08268.70323675 -.00000039  00000-0  10000-3 0  1476
2 23439  64.8208 334.1263 0146244 103.6417 258.0839 11.27552469566189
FO-29 [P]               
1 24278U 96046B   08268.88322693 -.00000092  00000-0 -55116-4 0  8650
2 24278  98.5773 172.0902 0350231 317.6193  39.8373 13.52939189597878
MO-30 [-]               
1 24305U 96052B   08269.82484325  .00000033  00000-0  19518-4 0  9205
2 24305  82.9380 189.5479 0028531 271.1997  88.5881 13.73562305604388
TO-31 [-]               
1 25396U 98043C   08269.26823635  .00000050  00000-0  39850-4 0  2132
2 25396  98.3667 304.5995 0001823 302.0910  58.0101 14.23763023530600
GO-32 [P]               
1 25397U 98043D   08269.22766059 -.00000175  00000-0 -59256-4 0  7053
2 25397  98.3576 299.4107 0000809 356.2146   3.9019 14.23147671530446
SO-33 [P]               
1 25509U 98061B   08268.86524204  .00000323  00000-0  50826-4 0  2895
2 25509  31.4308 112.7463 0354693 178.7756 181.3788 14.28228145517878
PO-34 [-]               
1 25520U 98064B   08269.24627618  .00000390  00000-0  94269-5 0   877
2 25520  28.4601 228.8749 0005189 293.0810  66.9239 15.17232106548373
ARISS [+]               
1 25544U 98067A   08269.47737389  .00008446  00000-0  67156-4 0  3268
2 25544  51.6417 222.0653 0006862 146.5675 317.7362 15.72200432564316
SO-35 [-]               
1 25636U 99008C   08269.52725391  .00000002  00000-0  89452-5 0  1174
2 25636  96.4699 151.1732 0147968 340.6132  18.9475 14.43442717504922
UO-36 [-]               
1 25693U 99021A   08268.96471217 -.00000060  00000-0  11464-4 0  7352
2 25693  64.5574 210.6404 0033701 224.2253 135.6145 14.78722392508620
OO-38 [-]               
1 26063U 00004C   08269.77511274 -.00000004  00000-0  18916-4 0  3189
2 26063 100.1879   2.5077 0036510 286.3098  73.4072 14.35844502454009
SO-41 [-]               
1 26545U 00057A   08269.37256751 -.00000032  00000-0  14950-4 0   759
2 26545  64.5575 213.5219 0040411 320.3496  39.4664 14.80530331431992
MO-46 [-]               
1 26548U 00057D   08269.35560671  .00000017  00000-0  20294-4 0  2054
2 26548  64.5571 180.3115 0039247 310.1958  49.5755 14.83297890432674
SO-42 [-]               
1 26549U 00057E   08269.53593772  .00000066  00000-0  28096-4 0  1492
2 26549  64.5566 228.2002 0041809 326.3723  33.4729 14.79388092431719
AO-40 [-]               
1 26609U 00072B   08267.51973889 -.00000463  00000-0  10000-3 0  1232
2 26609   7.8257  59.1063 7936186 126.1084 335.1143  1.25584355 36276
NO-44 [P]               
1 26931U 01043C   08269.40408089  .00000132  00000-0  83913-4 0  9856
2 26931  67.0540  26.4814 0007160 263.6787  96.3487 14.29534454364734
NO-45 [-]               
1 26932U 01043D   08268.88805011 -.00000041  00000-0  16395-4 0  9865
2 26932  67.0541  27.6942 0008282 274.0029  86.0123 14.29592621364702
BO-47 & BO-48 [-]       
1 27422U 02021B   08269.40276096 -.00000040  00000-0  12655-5 0  8584
2 27422  98.5451 348.4780 0011639 282.1952  77.7935 14.28460879331604
AO-49 [-]               
1 27605U 02058A   08269.58799597 -.00000208  00000-0 -91295-5 0  7350
2 27605  64.5580  97.0487 0085302 260.6345  98.5112 14.72363770309984
SO-50 [+]               
1 27607U 02058C   08268.71457109 -.00000100  00000-0  68949-5 0  7086
2 27607  64.5578 111.3703 0086012 260.3221  98.8129 14.71380757309617
DTUSAT [-]              
1 27842U 03031C   08268.64495665 -.00000009  00000-0  16197-4 0  3834
2 27842  98.7120 276.5375 0009225 165.3474 194.7972 14.20946631271639
CO-55 [+]               
1 27844U 03031E   08268.74719952  .00000017  00000-0  28321-4 0  4027
2 27844  98.7181 275.6426 0009668 184.0293 176.0799 14.20597374271572
AAU CUBESAT [-]         
1 27846U 03031G   08268.50382468  .00000008  00000-0  23961-4 0  3238
2 27846  98.7129 276.3935 0009288 165.7533 194.3921 14.20947800271618
CANX-1 [-]              
1 27847U 03031H   08268.57977056 -.00000003  00000-0  19013-4 0  3373
2 27847  98.7127 276.4635 0009385 165.5258 194.6175 14.20932806271574
CO-57 [+]               
1 27848U 03031J   08268.54737697  .00000018  00000-0  28979-4 0  3530
2 27848  98.7191 274.5246 0009359 189.3399 170.7610 14.20405391271511
RS-22 [+]               
1 27939U 03042A   08268.88405895 -.00000053  00000-0 -12583-5 0  6036
2 27939  97.9781 146.8221 0012561 248.5071 111.4781 14.63258325266779
AO-51 [+]               
1 28375U 04025K   08268.99499609 -.00000001  00000-0  12416-4 0  2066
2 28375  98.0672 287.9346 0082926 209.8613 149.7831 14.40618865222770
VO-52 [+]               
1 28650U 05017B   08269.36700169  .00000432  00000-0  61429-4 0   391
2 28650  97.7802 333.1772 0027218 171.6696 188.4955 14.81502998183434
UWE-1 [-]               
1 28892U 05043C   08269.44171283  .00000002  00000-0  99265-5 0  1514
2 28892  98.0814 160.6123 0018583  95.8512 264.4785 14.59661365155222
XO-53 [-]               
1 28894U 05043E   08269.53201438  .00000017  00000-0  13038-4 0  2703
2 28894  98.0816 160.9536 0018629  96.8369 263.4947 14.59634503155244
CO-58 [+]               
1 28895U 05043F   08268.58446797 -.00000074  00000-0 -59802-5 0  1284
2 28895  98.0840 160.1812 0019121  98.3111 262.0238 14.59697464154984
NCUBE-2 [-]             
1 28897U 05043H   08268.67438598  .00000099  00000-0  30084-4 0  6590
2 28897  98.0806 160.1903 0018361  98.8347 261.4967 14.59871257147281
CO-56 [P]               
1 28941U 06005C   08269.63834199  .00020383  25667-5  13734-3 0  4086
2 28941  98.1164  34.4878 0150783  35.2507 325.8679 15.61712900145692
PEHUENSAT 1 [+]         
1 29712U 07001D   08269.60756823  .00000425  00000-0  62476-4 0  8260
2 29712  97.8647 325.8628 0015276  57.7499 302.5200 14.80274282 92326
